{
  "type": "FeatureCollection",
  "features": [
    {
      "type": "Feature",
      "properties": {
        "norad_id": 40894,
        "name": "GAOFEN-9 01",
        "group": "resource",
        "lat": -18.938616977499183,
        "lon": 26.58477753042095,
        "alt_km": 616.5228513682614,
        "timestamp": "2025-12-10T21:43:21.743780+00:00",
        "meta_object_name": "GAOFEN-9 01",
        "meta_object_id": "2015-047A",
        "meta_epoch": "2025-12-10T15:19:42.733056",
        "meta_mean_motion": 14.82414005,
        "meta_eccentricity": 0.00285511,
        "meta_inclination": 97.6545,
        "meta_ra_of_asc_node": 23.6849,
        "meta_arg_of_pericenter": 40.939,
        "meta_mean_anomaly": 319.3961,
        "meta_ephemeris_type": 0,
        "meta_classification_type": "U",
        "meta_norad_cat_id": 40894,
        "meta_element_set_no": 999,
        "meta_rev_at_epoch": 55225,
        "meta_bstar": 0.00023661972,
        "meta_mean_motion_dot": 1.858e-05,
        "meta_mean_motion_ddot": 0,
        "tle_line1": "1 40894U 15047A   25344.63868904  .00001858  00000+0  23662-3 0  9997",
        "tle_line2": "2 40894  97.6545  23.6849 0028551  40.9390 319.3961 14.82414005552251"
      },
      "geometry": {
        "type": "Point",
        "coordinates": [
          26.58477753042095,
          -18.938616977499183
        ]
      }
    },
    {
      "type": "Feature",
      "properties": {
        "norad_id": 41026,
        "name": "YAOGAN-28",
        "group": "resource",
        "lat": -36.21490511288688,
        "lon": -62.62280989031295,
        "alt_km": 498.46754262774175,
        "timestamp": "2025-12-10T21:43:21.743791+00:00",
        "meta_object_name": "YAOGAN-28",
        "meta_object_id": "2015-064A",
        "meta_epoch": "2025-12-10T16:03:01.850688",
        "meta_mean_motion": 15.24296423,
        "meta_eccentricity": 0.00122818,
        "meta_inclination": 97.2806,
        "meta_ra_of_asc_node": 122.5196,
        "meta_arg_of_pericenter": 132.7551,
        "meta_mean_anomaly": 227.4722,
        "meta_ephemeris_type": 0,
        "meta_classification_type": "U",
        "meta_norad_cat_id": 41026,
        "meta_element_set_no": 999,
        "meta_rev_at_epoch": 56193,
        "meta_bstar": 0.00057940809,
        "meta_mean_motion_dot": 0.00014132,
        "meta_mean_motion_ddot": 0,
        "tle_line1": "1 41026U 15064A   25344.66877142  .00014132  00000+0  57941-3 0  9997",
        "tle_line2": "2 41026  97.2806 122.5196 0012281 132.7551 227.4722 15.24296423561939"
      },
      "geometry": {
        "type": "Point",
        "coordinates": [
          -62.62280989031295,
          -36.21490511288688
        ]
      }
    },
    {
      "type": "Feature",
      "properties": {
        "norad_id": 41038,
        "name": "YAOGAN-29",
        "group": "resource",
        "lat": -45.51654186272192,
        "lon": 179.81481832642433,
        "alt_km": 627.1519622326032,
        "timestamp": "2025-12-10T21:43:21.743801+00:00",
        "meta_object_name": "YAOGAN-29",
        "meta_object_id": "2015-069A",
        "meta_epoch": "2025-12-10T14:13:43.332960",
        "meta_mean_motion": 14.82878291,
        "meta_eccentricity": 3.907e-05,
        "meta_inclination": 98.0219,
        "meta_ra_of_asc_node": 7.7573,
        "meta_arg_of_pericenter": 347.1854,
        "meta_mean_anomaly": 12.9349,
        "meta_ephemeris_type": 0,
        "meta_classification_type": "U",
        "meta_norad_cat_id": 41038,
        "meta_element_set_no": 999,
        "meta_rev_at_epoch": 54267,
        "meta_bstar": 6.2657178e-05,
        "meta_mean_motion_dot": 4.53e-06,
        "meta_mean_motion_ddot": 0,
        "tle_line1": "1 41038U 15069A   25344.59286265  .00000453  00000+0  62657-4 0  9999",
        "tle_line2": "2 41038  98.0219   7.7573 0000390 347.1854  12.9349 14.82878291542672"
      },
      "geometry": {
        "type": "Point",
        "coordinates": [
          179.81481832642433,
          -45.51654186272192
        ]
      }
    },
    {
      "type": "Feature",
      "properties": {
        "norad_id": 41167,
        "name": "KENT RIDGE 1",
        "group": "resource",
        "lat": -0.2845306644942131,
        "lon": 45.82433471221126,
        "alt_km": 496.8593147554584,
        "timestamp": "2025-12-10T21:43:21.743812+00:00",
        "meta_object_name": "KENT RIDGE 1",
        "meta_object_id": "2015-077B",
        "meta_epoch": "2025-12-10T08:20:47.378112",
        "meta_mean_motion": 15.21606581,
        "meta_eccentricity": 0.00085393,
        "meta_inclination": 14.9787,
        "meta_ra_of_asc_node": 228.8902,
        "meta_arg_of_pericenter": 96.8813,
        "meta_mean_anomaly": 263.248,
        "meta_ephemeris_type": 0,
        "meta_classification_type": "U",
        "meta_norad_cat_id": 41167,
        "meta_element_set_no": 999,
        "meta_rev_at_epoch": 55227,
        "meta_bstar": 0.00026180645,
        "meta_mean_motion_dot": 6.854e-05,
        "meta_mean_motion_ddot": 0,
        "tle_line1": "1 41167U 15077B   25344.34777058  .00006854  00000+0  26181-3 0  9991",
        "tle_line2": "2 41167  14.9787 228.8902 0008539  96.8813 263.2480 15.21606581552279"
      },
      "geometry": {
        "type": "Point",
        "coordinates": [
          45.82433471221126,
          -0.2845306644942131
        ]
      }
    },
    {
      "type": "Feature",
      "properties": {
        "norad_id": 41194,
        "name": "GAOFEN-4",
        "group": "resource",
        "lat": 0.15855911519813587,
        "lon": 151.38781712992528,
        "alt_km": 35774.41811700603,
        "timestamp": "2025-12-10T21:43:21.743824+00:00",
        "meta_object_name": "GAOFEN-4",
        "meta_object_id": "2015-083A",
        "meta_epoch": "2025-12-10T12:30:49.584672",
        "meta_mean_motion": 1.00270326,
        "meta_eccentricity": 0.0003573,
        "meta_inclination": 0.1651,
        "meta_ra_of_asc_node": 80.7667,
        "meta_arg_of_pericenter": 106.7467,
        "meta_mean_anomaly": 185.3918,
        "meta_ephemeris_type": 0,
        "meta_classification_type": "U",
        "meta_norad_cat_id": 41194,
        "meta_element_set_no": 999,
        "meta_rev_at_epoch": 3663,
        "meta_bstar": 0,
        "meta_mean_motion_dot": -3.31e-06,
        "meta_mean_motion_ddot": 0,
        "tle_line1": "1 41194U 15083A   25344.52140723 -.00000331  00000+0  00000+0 0  9994",
        "tle_line2": "2 41194   0.1651  80.7667 0003573 106.7467 185.3918  1.00270326 36631"
      },
      "geometry": {
        "type": "Point",
        "coordinates": [
          151.38781712992528,
          0.15855911519813587
        ]
      }
    },
    {
      "type": "Feature",
      "properties": {
        "norad_id": 41240,
        "name": "JASON-3",
        "group": "resource",
        "lat": 65.94725080276021,
        "lon": -113.27420798099898,
        "alt_km": 1309.1575553402208,
        "timestamp": "2025-12-10T21:43:21.743836+00:00",
        "meta_object_name": "JASON-3",
        "meta_object_id": "2016-002A",
        "meta_epoch": "2025-12-10T13:48:39.329280",
        "meta_mean_motion": 12.87626414,
        "meta_eccentricity": 0.00071563,
        "meta_inclination": 66.0389,
        "meta_ra_of_asc_node": 162.3744,
        "meta_arg_of_pericenter": 270.6446,
        "meta_mean_anomaly": 89.3753,
        "meta_ephemeris_type": 0,
        "meta_classification_type": "U",
        "meta_norad_cat_id": 41240,
        "meta_element_set_no": 999,
        "meta_rev_at_epoch": 46296,
        "meta_bstar": 7.888299e-05,
        "meta_mean_motion_dot": -4.2e-07,
        "meta_mean_motion_ddot": 0,
        "tle_line1": "1 41240U 16002A   25344.57545520 -.00000042  00000+0  78883-4 0  9995",
        "tle_line2": "2 41240  66.0389 162.3744 0007156 270.6446  89.3753 12.87626414462963"
      },
      "geometry": {
        "type": "Point",
        "coordinates": [
          -113.27420798099898,
          65.94725080276021
        ]
      }
    },
    {
      "type": "Feature",
      "properties": {
        "norad_id": 41335,
        "name": "SENTINEL-3A",
        "group": "resource",
        "lat": -63.27743332102006,
        "lon": 67.47808921904215,
        "alt_km": 810.4292497099977,
        "timestamp": "2025-12-10T21:43:21.743846+00:00",
        "meta_object_name": "SENTINEL-3A",
        "meta_object_id": "2016-011A",
        "meta_epoch": "2025-12-10T15:17:33.639360",
        "meta_mean_motion": 14.2674539,
        "meta_eccentricity": 9.509e-05,
        "meta_inclination": 98.621,
        "meta_ra_of_asc_node": 49.676,
        "meta_arg_of_pericenter": 93.7354,
        "meta_mean_anomaly": 266.3936,
        "meta_ephemeris_type": 0,
        "meta_classification_type": "U",
        "meta_norad_cat_id": 41335,
        "meta_element_set_no": 999,
        "meta_rev_at_epoch": 51117,
        "meta_bstar": 0.00011289376,
        "meta_mean_motion_dot": 2.3e-06,
        "meta_mean_motion_ddot": 0,
        "tle_line1": "1 41335U 16011A   25344.63719490  .00000230  00000+0  11289-3 0  9990",
        "tle_line2": "2 41335  98.6210  49.6760 0000950  93.7354 266.3936 14.26745390511172"
      },
      "geometry": {
        "type": "Point",
        "coordinates": [
          67.47808921904215,
          -63.27743332102006
        ]
      }
    }
  ]
}